{
    "links": {
        "self": "http://www.neowsapp.com/rest/v1/neo/3824977?api_key=iIulBulltgU6a56xZRHN4H3l9WmuAYTsLGpBGhQ2"
    },
    "id": "3824977",
    "neo_reference_id": "3824977",
    "name": "(2018 KQ)",
    "designation": "2018 KQ",
    "nasa_jpl_url": "http://ssd.jpl.nasa.gov/sbdb.cgi?sstr=3824977",
    "absolute_magnitude_h": 27.5,
    "estimated_diameter": {
        "kilometers": {
            "estimated_diameter_min": 0.008405334,
            "estimated_diameter_max": 0.0187948982
        },
        "meters": {
            "estimated_diameter_min": 8.4053340207,
            "estimated_diameter_max": 18.7948982439
        },
        "miles": {
            "estimated_diameter_min": 0.0052228308,
            "estimated_diameter_max": 0.0116786047
        },
        "feet": {
            "estimated_diameter_min": 27.5765560686,
            "estimated_diameter_max": 61.6630539546
        }
    },
    "is_potentially_hazardous_asteroid": false,
    "close_approach_data": [
        {
            "close_approach_date": "1971-04-22",
            "close_approach_date_full": "1971-Apr-22 10:08",
            "epoch_date_close_approach": 41162880000,
            "relative_velocity": {
                "kilometers_per_second": "11.8956667603",
                "kilometers_per_hour": "42824.4003370656",
                "miles_per_hour": "26609.4169761061"
            },
            "miss_distance": {
                "astronomical": "0.1814671606",
                "lunar": "70.5907254734",
                "kilometers": "27147100.700707922",
                "miles": "16868426.1761044436"
            },
            "orbiting_body": "Earth"
        },
        {
            "close_approach_date": "2018-05-19",
            "close_approach_date_full": "2018-May-19 23:04",
            "epoch_date_close_approach": 1526771040000,
            "relative_velocity": {
                "kilometers_per_second": "7.6776435773",
                "kilometers_per_hour": "27639.5168783026",
                "miles_per_hour": "17174.1209180764"
            },
            "miss_distance": {
                "astronomical": "0.0223534182",
                "lunar": "8.6954796798",
                "kilometers": "3344023.749939234",
                "miles": "2077880.0056360692"
            },
            "orbiting_body": "Earth"
        }
    ],
    "orbital_data": {
        "orbit_id": "1",
        "orbit_determination_date": "2018-05-19 13:12:08",
        "first_observation_date": "2018-05-17",
        "last_observation_date": "2018-05-19",
        "data_arc_in_days": 2,
        "observations_used": 29,
        "orbit_uncertainty": "8",
        "minimum_orbit_intersection": ".0187189",
        "jupiter_tisserand_invariant": "3.711",
        "epoch_osculation": "2458256.5",
        "eccentricity": ".4776996082876132",
        "semi_major_axis": "1.972553088504855",
        "inclination": "7.422738063805872",
        "ascending_node_longitude": "60.39373316780448",
        "orbital_period": "1011.90904425595",
        "perihelion_distance": "1.030265250799564",
        "perihelion_argument": "184.9429452251742",
        "aphelion_distance": "2.914840926210146",
        "perihelion_time": "2458263.877229536113",
        "mean_anomaly": "357.375453210863",
        "mean_motion": ".3557632003029537",
        "equinox": "J2000",
        "orbit_class": {
            "orbit_class_type": "AMO",
            "orbit_class_description": "Near-Earth asteroid orbits similar to that of 1221 Amor",
            "orbit_class_range": "1.017 AU < q (perihelion) < 1.3 AU"
        }
    },
    "is_sentry_object": false
}